satname,norad_id,inclination_deg,eccentricity,mean_motion_rev_per_day,perigee_km,apogee_km,l1,l2
STARLINK-1522,46027,53.0541,0.0001299,15.06437146,546.1981251484385,547.9973011269112,1 46027U 20055A   26030.14817032  .00015483  00000+0  10550-2 0  9991,2 46027  53.0541 299.6369 0001299  77.1761 282.9373 15.06437146303077
STARLINK-1523,46028,53.0553,0.0001312,15.06399999,546.3029552719308,548.1201667343375,1 46028U 20055B   26030.03022745  .00001940  00000+0  14910-3 0  9997,2 46028  53.0553 300.1638 0001312  81.6934 278.4204 15.06399999303072
STARLINK-1526,46029,53.0562,0.000131,15.0639781,546.3110484406243,548.1254915213603,1 46029U 20055C   26029.95652333  .00001059  00000+0  89949-4 0  9995,2 46029  53.0562 300.4964 0001310 101.9096 258.2040 15.06397810303053
STARLINK-1555,46032,53.0534,0.0001436,15.06392101,546.2412838120108,548.2302508707908,1 46032U 20055F   26030.47254351  .00002131  00000+0  16196-3 0  9991,2 46032  53.0534 298.1802 0001436  96.4349 263.6803 15.06392101303132
STARLINK-1556,46033,53.054,0.0001276,15.0638838,546.3634927733001,548.1308508139418,1 46033U 20055G   26030.05604713 -.00001588  00000+0 -87754-4 0  9993,2 46033  53.0540 300.0513 0001276  90.5225 269.5911 15.06388380303041
STARLINK-1557,46034,53.0543,0.0001449,15.06392543,546.2309263458574,548.2378989812478,1 46034U 20055H   26030.45781642  .00003728  00000+0  26908-3 0  9994,2 46034  53.0543 298.2466 0001449  91.4116 268.7039 15.06392543303106
STARLINK-1558,46035,53.0547,0.0001204,15.06389895,546.4087127857874,548.0763441762456,1 46035U 20055J   26030.13343996 -.00000595  00000+0 -21066-4 0  9998,2 46035  53.0547 299.7051 0001204 113.8491 246.2624 15.06389895303085
STARLINK-1560,46036,53.0549,0.0001654,15.06383245,546.1174489309606,548.4083712212132,1 46036U 20055K   26030.11871337  .00001321  00000+0  10760-3 0  9996,2 46036  53.0549 299.7726 0001654  90.8748 269.2430 15.06383245303088
STARLINK-1567,46038,53.0536,0.00014,15.0639799,546.2481686450719,548.1872679661974,1 46038U 20055M   26030.12975670  .00003884  00000+0  27950-3 0  9999,2 46038  53.0536 299.7188 0001400  83.2375 276.8773 15.06397990303074
STARLINK-1569,46039,53.0533,0.0001645,15.06391049,546.0997672493222,548.3782159505581,1 46039U 20055N   26030.26981103 -.00007882  00000+0 -51097-3 0  9996,2 46039  53.0533 299.0911 0001645  97.7653 262.3523 15.06391049303093
STARLINK-1582,46043,53.0552,0.0001309,15.06399206,546.3074629902103,548.1205198797679,1 46043U 20055S   26030.47623730  .00001643  00000+0  12914-3 0  9995,2 46043  53.0552 298.1630 0001309  98.1857 261.9280 15.06399206303127
STARLINK-1591,46045,53.0556,0.0001564,15.06382178,546.1830472825586,548.3493133973689,1 46045U 20055U   26030.17031166 -.00001989  00000+0 -11475-3 0  9996,2 46045  53.0556 299.5383 0001564  95.9039 264.2128 15.06382178303063
STARLINK-1524,46047,53.0543,0.0001614,15.06388425,546.1292768902658,548.3647908564008,1 46047U 20055W   26029.99059897 -.00012037  00000+0 -79079-3 0  9997,2 46047  53.0543 290.3438 0001614  92.7883 267.3290 15.06388425303198
STARLINK-1527,46048,53.0544,0.0001494,15.0639318,546.1978101375034,548.2671105322506,1 46048U 20055X   26030.45135791  .00002603  00000+0  19362-3 0  9994,2 46048  53.0544 288.2767 0001494  78.3535 281.7622 15.06393180303240
STARLINK-1540,46051,53.0548,0.0001385,15.06417208,546.1996649278826,548.1179718695803,1 46051U 20055AA  26030.15278530  .00005795  00000+0  40742-3 0  9995,2 46051  53.0548 289.6162 0001385  86.4507 273.6640 15.06417208303237
STARLINK-1541,46052,53.0551,0.0001507,15.06406231,546.1488137367769,548.236108036288,1 46052U 20055AB  26030.40343182 -.00000516  00000+0 -15723-4 0  9990,2 46052  53.0551 288.4921 0001507  88.1575 271.9587 15.06406231303237
STARLINK-1543,46053,53.0561,0.0001133,15.06382913,546.4792797022201,548.0485755524205,1 46053U 20055AC  26030.00903873 -.00000298  00000+0 -11126-5 0  9997,2 46053  53.0561 290.2576 0001133  99.9291 260.1826 15.06382913303209
STARLINK-1548,46054,53.0539,0.0001284,15.0639135,546.3488509104391,548.1272872281761,1 46054U 20055AD  26030.41449089 -.00002693  00000+0 -16199-3 0  9991,2 46054  53.0539 288.4402 0001284  83.1480 276.9655 15.06391350303260
STARLINK-1554,46055,53.0542,0.0001447,15.0640616,546.1905832853372,548.194773694293,1 46055U 20055AE  26030.39975324  .00006186  00000+0  43373-3 0  9998,2 46055  53.0542 288.5079 0001447  92.0567 268.0588 15.06406160303265
STARLINK-1564,46058,53.0574,0.0001656,15.06409944,546.0342485038846,548.3279138523712,1 46058U 20055AH  26030.14547186  .00003415  00000+0  24801-3 0  9992,2 46058  53.0574 290.1131 0001656  99.7499 260.3678 15.06409944303214
STARLINK-1570,46059,53.0539,0.0001387,15.06389083,546.2844666872279,548.2055676587916,1 46059U 20055AJ  26030.10857284  .00001146  00000+0  95811-4 0  9991,2 46059  53.0539 289.8162 0001387  85.6227 274.4921 15.06389083303172
STARLINK-1572,46060,53.0535,0.0001373,15.06397282,546.2690367285859,548.1707397300934,1 46060U 20055AK  26030.03853468  .00002609  00000+0  19399-3 0  9996,2 46060  53.0535 290.1288 0001373  94.7738 265.3408 15.06397282303176
STARLINK-1573,46061,53.0541,0.000135,15.06406233,546.2575352804715,548.1273742332551,1 46061U 20055AL  26030.43293098  .00001417  00000+0  11399-3 0  9996,2 46061  53.0541 288.3968 0001350  98.7106 261.4036 15.06406233303267
STARLINK-1577,46063,53.0541,0.0001555,15.06383574,546.1850021907458,548.3388012491805,1 46063U 20055AN  26030.12699290  .00004802  00000+0  34120-3 0  9996,2 46063  53.0541 289.7303 0001555 105.2174 254.8987 15.06383574303211
STARLINK-1583,46064,53.054,0.0001518,15.06398237,546.1656925533052,548.2682300159513,1 46064U 20055AP  26030.09381517 -.00002020  00000+0 -11677-3 0  9997,2 46064  53.0540 289.8832 0001518  95.7934 264.3228 15.06398237303211
STARLINK-1525,46066,53.054,0.0001393,15.0639403,546.2651515859407,548.1945587917962,1 46066U 20055AR  26029.95928563 -.00001170  00000+0 -59672-4 0  9993,2 46066  53.0540 270.4849 0001393  94.1237 265.9911 15.06394030303467
STARLINK-1536,46070,53.0545,0.0001642,15.06409347,546.0457733482526,548.3200484069839,1 46070U 20055AV  26030.06985350  .00004850  00000+0  34419-3 0  9996,2 46070  53.0545 269.9873 0001642  85.2840 274.8336 15.06409347303496
STARLINK-1542,46073,53.0541,0.000114,15.06410295,546.390519287107,547.969491564344,1 46073U 20055AY  26029.92978961  .00003890  00000+0  27980-3 0  9990,2 46073  53.0541 270.6172 0001140  93.9568 266.1552 15.06410295303467
